[{"OBJECT_NAME":"WEILAI 1R","OBJECT_ID":"2019-093F","EPOCH":"2026-03-09T22:33:48.244608","MEAN_MOTION":14.997592,"ECCENTRICITY":0.00116762,"INCLINATION":97.7939,"RA_OF_ASC_NODE":158.7373,"ARG_OF_PERICENTER":23.5076,"MEAN_ANOMALY":336.6679,"EPHEMERIS_TYPE":0,"CLASSIFICATION_TYPE":"U","NORAD_CAT_ID":44884,"ELEMENT_SET_NO":999,"REV_AT_EPOCH":33754,"BSTAR":0.00050142794,"MEAN_MOTION_DOT":6.146e-5,"MEAN_MOTION_DDOT":0},{"OBJECT_NAME":"STARLINK-6059","OBJECT_ID":"2023-078AZ","EPOCH":"2026-03-09T21:24:17.066016","MEAN_MOTION":14.98328614,"ECCENTRICITY":0.00026337,"INCLINATION":70.0011,"RA_OF_ASC_NODE":343.8217,"ARG_OF_PERICENTER":264.6328,"MEAN_ANOMALY":95.453,"EPHEMERIS_TYPE":0,"CLASSIFICATION_TYPE":"U","NORAD_CAT_ID":56814,"ELEMENT_SET_NO":999,"REV_AT_EPOCH":15271,"BSTAR":2.4703435e-5,"MEAN_MOTION_DOT":2.02e-6,"MEAN_MOTION_DDOT":0}]
